EUTELSAT 7A             
1 28187U 04008A   25210.49281059  .00000100  00000+0  00000+0 0  9995
2 28187   5.0069  75.8817 0000894  43.3829 226.2978  1.00271706 78111
EUTELSAT 174A           
1 28924U 05052A   25210.51503292  .00000008  00000+0  00000+0 0  9990
2 28924   3.3983  80.5715 0006099  49.3973 176.8501  1.00274708 49097
EUTELSAT HOTBIRD 13B    
1 29270U 06032A   25210.48458814  .00000154  00000+0  00000+0 0  9991
2 29270   0.8246  85.8861 0003963  41.5839  27.4147  1.00272251 44079
EUTELSAT HOTBIRD 13C    
1 33459U 08065A   25210.40416238 -.00000102  00000+0  00000+0 0  9993
2 33459   2.1171  83.0770 0003338  53.7561 303.4405  1.00272235 44107
EUTELSAT 36B            
1 36101U 09065A   25210.41646911  .00000111  00000+0  00000+0 0  9994
2 36101   0.0514  13.8061 0005698 115.3566  18.5563  1.00274454 57475
EUTELSAT KA-SAT 9A      
1 37258U 10069A   25210.55121190  .00000061  00000+0  00000+0 0  9990
2 37258   0.0554 311.3857 0003792 186.7427  16.7040  1.00273714 40776
EUTELSAT 7 WEST A       
1 37816U 11051A   25210.40520240 -.00000061  00000+0  00000+0 0  9996
2 37816   0.0605   8.5968 0004862 134.1948 303.0487  1.00272415 50668
EUTELSAT 16A            
1 37836U 11057A   25210.55259858  .00000103  00000+0  00000+0 0  9990
2 37836   0.0634   4.0955 0005524 124.0231  34.2333  1.00271053  4094
